ONEWEB-0504             
1 54122U 22138K   25317.12622757 -.00000006  00000+0 -48312-4 0  9999
2 54122  87.9226 347.9527 0001907 104.4688 255.6656 13.19725475148333
ONEWEB-0505             
1 54123U 22138L   25317.12306477  .00000109  00000+0  23875-3 0  9996
2 54123  87.9227 347.9415 0002250 107.8071 252.3307 13.19726072148315
ONEWEB-0506             
1 54124U 22138M   25317.09778914  .00000078  00000+0  16215-3 0  9997
2 54124  87.9229 347.9441 0001931  99.8149 260.3202 13.19726645148306
ONEWEB-0507             
1 54125U 22138N   25317.11832092  .00000091  00000+0  19585-3 0  9997
2 54125  87.9206 347.9802 0002041  97.9404 262.1961 13.19727211148356
ONEWEB-0508             
1 54126U 22138P   25317.11515560  .00000069  00000+0  14042-3 0  9994
2 54126  87.9220 347.9719 0002191 100.3677 259.7703 13.19726998148332
ONEWEB-0509             
1 54127U 22138Q   25317.08989237  .00000046  00000+0  83394-4 0  9999
2 54127  87.9230 347.9447 0001945  97.9143 262.2210 13.19726636148305
ONEWEB-0510             
1 54128U 22138R   25316.99737429  .00000015  00000+0  46941-5 0  9997
2 54128  87.9178 317.5529 0001491  75.0620 285.0678 13.20772194150748
ONEWEB-0511             
1 54129U 22138S   25317.08673054  .00000070  00000+0  14365-3 0  9996
2 54129  87.9230 347.9491 0001672 103.2182 256.9137 13.19727301148338
